{
    "links": {
        "self": "http://www.neowsapp.com/rest/v1/neo/3763420?api_key=iIulBulltgU6a56xZRHN4H3l9WmuAYTsLGpBGhQ2"
    },
    "id": "3763420",
    "neo_reference_id": "3763420",
    "name": "(2016 VN2)",
    "designation": "2016 VN2",
    "nasa_jpl_url": "http://ssd.jpl.nasa.gov/sbdb.cgi?sstr=3763420",
    "absolute_magnitude_h": 23.8,
    "estimated_diameter": {
        "kilometers": {
            "estimated_diameter_min": 0.046190746,
            "estimated_diameter_max": 0.1032856481
        },
        "meters": {
            "estimated_diameter_min": 46.1907460282,
            "estimated_diameter_max": 103.2856480504
        },
        "miles": {
            "estimated_diameter_min": 0.0287015901,
            "estimated_diameter_max": 0.0641787064
        },
        "feet": {
            "estimated_diameter_min": 151.544447199,
            "estimated_diameter_max": 338.8636855496
        }
    },
    "is_potentially_hazardous_asteroid": false,
    "close_approach_data": [
        {
            "close_approach_date": "2016-11-28",
            "close_approach_date_full": "2016-Nov-28 23:05",
            "epoch_date_close_approach": 1480374300000,
            "relative_velocity": {
                "kilometers_per_second": "9.7905995493",
                "kilometers_per_hour": "35246.1583774449",
                "miles_per_hour": "21900.5921318074"
            },
            "miss_distance": {
                "astronomical": "0.1266212942",
                "lunar": "49.2556834438",
                "kilometers": "18942275.908963354",
                "miles": "11770184.4591241252"
            },
            "orbiting_body": "Earth"
        },
        {
            "close_approach_date": "2089-11-15",
            "close_approach_date_full": "2089-Nov-15 00:41",
            "epoch_date_close_approach": 3782853660000,
            "relative_velocity": {
                "kilometers_per_second": "12.5876008115",
                "kilometers_per_hour": "45315.36292135",
                "miles_per_hour": "28157.2042552133"
            },
            "miss_distance": {
                "astronomical": "0.0994396751",
                "lunar": "38.6820336139",
                "kilometers": "14875963.588452037",
                "miles": "9243495.1472986306"
            },
            "orbiting_body": "Earth"
        },
        {
            "close_approach_date": "2114-12-06",
            "close_approach_date_full": "2114-Dec-06 08:21",
            "epoch_date_close_approach": 4573527660000,
            "relative_velocity": {
                "kilometers_per_second": "5.3983480163",
                "kilometers_per_hour": "19434.0528586767",
                "miles_per_hour": "12075.5646776594"
            },
            "miss_distance": {
                "astronomical": "1.8677884333",
                "lunar": "726.5697005537",
                "kilometers": "279417171.232317071",
                "miles": "173621779.2548787398"
            },
            "orbiting_body": "Juptr"
        },
        {
            "close_approach_date": "2116-11-15",
            "close_approach_date_full": "2116-Nov-15 08:42",
            "epoch_date_close_approach": 4634872920000,
            "relative_velocity": {
                "kilometers_per_second": "12.9982744738",
                "kilometers_per_hour": "46793.7881055097",
                "miles_per_hour": "29075.8401703374"
            },
            "miss_distance": {
                "astronomical": "0.1639582474",
                "lunar": "63.7797582386",
                "kilometers": "24527804.579973038",
                "miles": "15240871.0374144044"
            },
            "orbiting_body": "Earth"
        }
    ],
    "orbital_data": {
        "orbit_id": "7",
        "orbit_determination_date": "2017-04-06 08:22:23",
        "first_observation_date": "2016-11-06",
        "last_observation_date": "2016-12-19",
        "data_arc_in_days": 43,
        "observations_used": 38,
        "orbit_uncertainty": "6",
        "minimum_orbit_intersection": ".092263",
        "jupiter_tisserand_invariant": "3.199",
        "epoch_osculation": "2459000.5",
        "eccentricity": ".5829763888344213",
        "semi_major_axis": "2.459812580772854",
        "inclination": "14.03664114813493",
        "ascending_node_longitude": "227.371561411359",
        "orbital_period": "1409.131276569918",
        "perihelion_distance": "1.025799925224417",
        "perihelion_argument": "217.4460926088403",
        "aphelion_distance": "3.893825236321291",
        "perihelion_time": "2459154.066699727938",
        "mean_anomaly": "320.7673090355151",
        "mean_motion": ".2554765521040067",
        "equinox": "J2000",
        "orbit_class": {
            "orbit_class_type": "AMO",
            "orbit_class_description": "Near-Earth asteroid orbits similar to that of 1221 Amor",
            "orbit_class_range": "1.017 AU < q (perihelion) < 1.3 AU"
        }
    },
    "is_sentry_object": false
}